ONEWEB-0382             
1 49308U 21090AF  26030.19256090 -.00000053  00000+0 -16205-3 0  9995
2 49308  87.9226 301.9719 0001855  68.7976 291.3356 13.20773452211605
ONEWEB-0383             
1 49309U 21090AG  26030.25832357  .00000107  00000+0  25336-3 0  9992
2 49309  87.9033 317.1873 0001725  70.1244 290.0071 13.14503211209472
ONEWEB-0384             
1 49310U 21090AH  26030.18489826  .00000070  00000+0  14126-3 0  9999
2 49310  87.9240 302.0130 0001910  62.6739 297.4589 13.20804132211611
ONEWEB-0385             
1 49311U 21090AJ  26030.10893106 -.00000005  00000+0 -44065-4 0  9998
2 49311  87.9227 301.9915 0001736  74.7593 285.3732 13.20771517211575
ONEWEB-0386             
1 49312U 21090AK  26030.20202809 -.00000025  00000+0 -94246-4 0  9992
2 49312  87.9224 301.9589 0001788  69.6321 290.5004 13.20770252211608
ONEWEB-0387             
1 49313U 21090AL  26030.18624586 -.00000008  00000+0 -52660-4 0  9995
2 49313  87.9220 302.0030 0001935  79.4831 280.6520 13.20774506211606
ONEWEB-0388             
1 49314U 21090AM  26030.26963038 -.00000071  00000+0 -21063-3 0  9995
2 49314  87.9240 332.4233 0001836  75.6051 284.5285 13.19727919208222
ONEWEB-0389             
1 50469U 21132A   26029.99489221  .00000089  00000+0  19694-3 0  9994
2 50469  87.9089  33.3284 0002180  84.7812 275.3568 13.17650291199887
ONEWEB-0390             
1 50470U 21132B   26029.99658428  .00000114  00000+0  25985-3 0  9992
2 50470  87.9090  33.3284 0001908  96.1332 264.0017 13.17649605199883
ONEWEB-0391             
1 50471U 21132C   26030.07418608 -.00000056  00000+0 -17619-3 0  9990
2 50471  87.9085  33.3225 0002703  90.0566 270.0876 13.17650221199896
ONEWEB-0392             
1 50472U 21132D   26030.02864360 -.00000011  00000+0 -60850-4 0  9993
2 50472  87.9095  33.2883 0002193  86.1425 273.9957 13.17650318199923
ONEWEB-0393             
1 50473U 21132E   26030.22959457  .00000105  00000+0  23749-3 0  9995
2 50473  87.9100  33.2712 0002007  87.0756 273.0605 13.17648905199945
ONEWEB-0394             
1 50474U 21132F   26030.15437153  .00000020  00000+0  19046-4 0  9994
2 50474  87.9206   2.8418 0001941  79.3470 280.7881 13.18686705203400
ONEWEB-0395             
1 50475U 21132G   26030.06987238 -.00000456  00000+0 -13223-2 0  9993
2 50475  87.8814  48.5605 0002024  97.2694 262.8664 13.11415184197619
ONEWEB-0396             
1 50476U 21132H   26029.92014643  .00000084  00000+0  18007-3 0  9999
2 50476  87.9205   2.9005 0001916  80.9112 279.2237 13.18687311203410
ONEWEB-0397             
1 50477U 21132J   26030.16260884 -.00000047  00000+0 -15133-3 0  9996
2 50477  87.9205   2.8522 0001869  76.5309 283.6031 13.18686982203425
ONEWEB-0398             
1 50478U 21132K   26030.11397548  .00000525  00000+0  14460-2 0  9990
2 50478  87.8821  48.5288 0001993 103.7877 256.3472 13.11414548197514
