[{"OBJECT_NAME":"ONEWEB-0382","OBJECT_ID":"2021-090AF","EPOCH":"2026-01-30T04:37:17.261760","MEAN_MOTION":13.20773452,"ECCENTRICITY":0.00018558,"INCLINATION":87.9226,"RA_OF_ASC_NODE":301.9719,"ARG_OF_PERICENTER":68.7976,"MEAN_ANOMALY":291.3356,"EPHEMERIS_TYPE":0,"CLASSIFICATION_TYPE":"U","NORAD_CAT_ID":49308,"ELEMENT_SET_NO":999,"REV_AT_EPOCH":21160,"BSTAR":-0.0001620476,"MEAN_MOTION_DOT":-5.3e-7,"MEAN_MOTION_DDOT":0},{"OBJECT_NAME":"ONEWEB-0383","OBJECT_ID":"2021-090AG","EPOCH":"2026-01-30T06:11:59.156448","MEAN_MOTION":13.14503211,"ECCENTRICITY":0.00017252,"INCLINATION":87.9033,"RA_OF_ASC_NODE":317.1873,"ARG_OF_PERICENTER":70.1244,"MEAN_ANOMALY":290.0071,"EPHEMERIS_TYPE":0,"CLASSIFICATION_TYPE":"U","NORAD_CAT_ID":49309,"ELEMENT_SET_NO":999,"REV_AT_EPOCH":20947,"BSTAR":0.00025335804,"MEAN_MOTION_DOT":1.07e-6,"MEAN_MOTION_DDOT":0},{"OBJECT_NAME":"ONEWEB-0384","OBJECT_ID":"2021-090AH","EPOCH":"2026-01-30T04:26:15.209664","MEAN_MOTION":13.20804132,"ECCENTRICITY":0.00019109,"INCLINATION":87.924,"RA_OF_ASC_NODE":302.013,"ARG_OF_PERICENTER":62.6739,"MEAN_ANOMALY":297.4589,"EPHEMERIS_TYPE":0,"CLASSIFICATION_TYPE":"U","NORAD_CAT_ID":49310,"ELEMENT_SET_NO":999,"REV_AT_EPOCH":21161,"BSTAR":0.00014125957,"MEAN_MOTION_DOT":7.0e-7,"MEAN_MOTION_DDOT":0},{"OBJECT_NAME":"ONEWEB-0385","OBJECT_ID":"2021-090AJ","EPOCH":"2026-01-30T02:36:51.643584","MEAN_MOTION":13.20771517,"ECCENTRICITY":0.00017369,"INCLINATION":87.9227,"RA_OF_ASC_NODE":301.9915,"ARG_OF_PERICENTER":74.7593,"MEAN_ANOMALY":285.3732,"EPHEMERIS_TYPE":0,"CLASSIFICATION_TYPE":"U","NORAD_CAT_ID":49311,"ELEMENT_SET_NO":999,"REV_AT_EPOCH":21157,"BSTAR":-4.4065118e-5,"MEAN_MOTION_DOT":-5.0e-8,"MEAN_MOTION_DDOT":0},{"OBJECT_NAME":"ONEWEB-0386","OBJECT_ID":"2021-090AK","EPOCH":"2026-01-30T04:50:55.226976","MEAN_MOTION":13.20770252,"ECCENTRICITY":0.0001788,"INCLINATION":87.9224,"RA_OF_ASC_NODE":301.9589,"ARG_OF_PERICENTER":69.6321,"MEAN_ANOMALY":290.5004,"EPHEMERIS_TYPE":0,"CLASSIFICATION_TYPE":"U","NORAD_CAT_ID":49312,"ELEMENT_SET_NO":999,"REV_AT_EPOCH":21160,"BSTAR":-9.4245719e-5,"MEAN_MOTION_DOT":-2.5e-7,"MEAN_MOTION_DDOT":0},{"OBJECT_NAME":"ONEWEB-0387","OBJECT_ID":"2021-090AL","EPOCH":"2026-01-30T04:28:11.642304","MEAN_MOTION":13.20774506,"ECCENTRICITY":0.00019358,"INCLINATION":87.922,"RA_OF_ASC_NODE":302.003,"ARG_OF_PERICENTER":79.4831,"MEAN_ANOMALY":280.652,"EPHEMERIS_TYPE":0,"CLASSIFICATION_TYPE":"U","NORAD_CAT_ID":49313,"ELEMENT_SET_NO":999,"REV_AT_EPOCH":21160,"BSTAR":-5.2659684e-5,"MEAN_MOTION_DOT":-8.0e-8,"MEAN_MOTION_DDOT":0},{"OBJECT_NAME":"ONEWEB-0388","OBJECT_ID":"2021-090AM","EPOCH":"2026-01-30T06:28:16.064832","MEAN_MOTION":13.19727919,"ECCENTRICITY":0.00018362,"INCLINATION":87.924,"RA_OF_ASC_NODE":332.4233,"ARG_OF_PERICENTER":75.6051,"MEAN_ANOMALY":284.5285,"EPHEMERIS_TYPE":0,"CLASSIFICATION_TYPE":"U","NORAD_CAT_ID":49314,"ELEMENT_SET_NO":999,"REV_AT_EPOCH":20822,"BSTAR":-0.00021063221,"MEAN_MOTION_DOT":-7.1e-7,"MEAN_MOTION_DDOT":0},{"OBJECT_NAME":"ONEWEB-0389","OBJECT_ID":"2021-132A","EPOCH":"2026-01-29T23:52:38.686944","MEAN_MOTION":13.17650291,"ECCENTRICITY":0.00021802,"INCLINATION":87.9089,"RA_OF_ASC_NODE":33.3284,"ARG_OF_PERICENTER":84.7812,"MEAN_ANOMALY":275.3568,"EPHEMERIS_TYPE":0,"CLASSIFICATION_TYPE":"U","NORAD_CAT_ID":50469,"ELEMENT_SET_NO":999,"REV_AT_EPOCH":19988,"BSTAR":0.00019693798,"MEAN_MOTION_DOT":8.9e-7,"MEAN_MOTION_DDOT":0},{"OBJECT_NAME":"ONEWEB-0390","OBJECT_ID":"2021-132B","EPOCH":"2026-01-29T23:55:04.881792","MEAN_MOTION":13.17649605,"ECCENTRICITY":0.0001908,"INCLINATION":87.909,"RA_OF_ASC_NODE":33.3284,"ARG_OF_PERICENTER":96.1332,"MEAN_ANOMALY":264.0017,"EPHEMERIS_TYPE":0,"CLASSIFICATION_TYPE":"U","NORAD_CAT_ID":50470,"ELEMENT_SET_NO":999,"REV_AT_EPOCH":19988,"BSTAR":0.00025984733,"MEAN_MOTION_DOT":1.14e-6,"MEAN_MOTION_DDOT":0},{"OBJECT_NAME":"ONEWEB-0391","OBJECT_ID":"2021-132C","EPOCH":"2026-01-30T01:46:49.677312","MEAN_MOTION":13.17650221,"ECCENTRICITY":0.00027039,"INCLINATION":87.9085,"RA_OF_ASC_NODE":33.3225,"ARG_OF_PERICENTER":90.0566,"MEAN_ANOMALY":270.0876,"EPHEMERIS_TYPE":0,"CLASSIFICATION_TYPE":"U","NORAD_CAT_ID":50471,"ELEMENT_SET_NO":999,"REV_AT_EPOCH":19989,"BSTAR":-0.00017619064,"MEAN_MOTION_DOT":-5.6e-7,"MEAN_MOTION_DDOT":0},{"OBJECT_NAME":"ONEWEB-0392","OBJECT_ID":"2021-132D","EPOCH":"2026-01-30T00:41:14.807040","MEAN_MOTION":13.17650318,"ECCENTRICITY":0.00021931,"INCLINATION":87.9095,"RA_OF_ASC_NODE":33.2883,"ARG_OF_PERICENTER":86.1425,"MEAN_ANOMALY":273.9957,"EPHEMERIS_TYPE":0,"CLASSIFICATION_TYPE":"U","NORAD_CAT_ID":50472,"ELEMENT_SET_NO":999,"REV_AT_EPOCH":19992,"BSTAR":-6.085041e-5,"MEAN_MOTION_DOT":-1.1e-7,"MEAN_MOTION_DDOT":0},{"OBJECT_NAME":"ONEWEB-0393","OBJECT_ID":"2021-132E","EPOCH":"2026-01-30T05:30:36.970848","MEAN_MOTION":13.17648905,"ECCENTRICITY":0.00020079,"INCLINATION":87.91,"RA_OF_ASC_NODE":33.2712,"ARG_OF_PERICENTER":87.0756,"MEAN_ANOMALY":273.0605,"EPHEMERIS_TYPE":0,"CLASSIFICATION_TYPE":"U","NORAD_CAT_ID":50473,"ELEMENT_SET_NO":999,"REV_AT_EPOCH":19994,"BSTAR":0.00023748742,"MEAN_MOTION_DOT":1.05e-6,"MEAN_MOTION_DDOT":0},{"OBJECT_NAME":"ONEWEB-0394","OBJECT_ID":"2021-132F","EPOCH":"2026-01-30T03:42:17.700192","MEAN_MOTION":13.18686705,"ECCENTRICITY":0.00019418,"INCLINATION":87.9206,"RA_OF_ASC_NODE":2.8418,"ARG_OF_PERICENTER":79.347,"MEAN_ANOMALY":280.7881,"EPHEMERIS_TYPE":0,"CLASSIFICATION_TYPE":"U","NORAD_CAT_ID":50474,"ELEMENT_SET_NO":999,"REV_AT_EPOCH":20340,"BSTAR":1.9045725e-5,"MEAN_MOTION_DOT":2.0e-7,"MEAN_MOTION_DDOT":0},{"OBJECT_NAME":"ONEWEB-0395","OBJECT_ID":"2021-132G","EPOCH":"2026-01-30T01:40:36.973632","MEAN_MOTION":13.11415184,"ECCENTRICITY":0.00020243,"INCLINATION":87.8814,"RA_OF_ASC_NODE":48.5605,"ARG_OF_PERICENTER":97.2694,"MEAN_ANOMALY":262.8664,"EPHEMERIS_TYPE":0,"CLASSIFICATION_TYPE":"U","NORAD_CAT_ID":50475,"ELEMENT_SET_NO":999,"REV_AT_EPOCH":19761,"BSTAR":-0.0013223213,"MEAN_MOTION_DOT":-4.56e-6,"MEAN_MOTION_DDOT":0},{"OBJECT_NAME":"ONEWEB-0396","OBJECT_ID":"2021-132H","EPOCH":"2026-01-29T22:05:00.651552","MEAN_MOTION":13.18687311,"ECCENTRICITY":0.00019167,"INCLINATION":87.9205,"RA_OF_ASC_NODE":2.9005,"ARG_OF_PERICENTER":80.9112,"MEAN_ANOMALY":279.2237,"EPHEMERIS_TYPE":0,"CLASSIFICATION_TYPE":"U","NORAD_CAT_ID":50476,"ELEMENT_SET_NO":999,"REV_AT_EPOCH":20341,"BSTAR":0.00018007311,"MEAN_MOTION_DOT":8.4e-7,"MEAN_MOTION_DDOT":0},{"OBJECT_NAME":"ONEWEB-0397","OBJECT_ID":"2021-132J","EPOCH":"2026-01-30T03:54:09.403776","MEAN_MOTION":13.18686982,"ECCENTRICITY":0.00018692,"INCLINATION":87.9205,"RA_OF_ASC_NODE":2.8522,"ARG_OF_PERICENTER":76.5309,"MEAN_ANOMALY":283.6031,"EPHEMERIS_TYPE":0,"CLASSIFICATION_TYPE":"U","NORAD_CAT_ID":50477,"ELEMENT_SET_NO":999,"REV_AT_EPOCH":20342,"BSTAR":-0.00015133242,"MEAN_MOTION_DOT":-4.7e-7,"MEAN_MOTION_DDOT":0},{"OBJECT_NAME":"ONEWEB-0398","OBJECT_ID":"2021-132K","EPOCH":"2026-01-30T02:44:07.481472","MEAN_MOTION":13.11414548,"ECCENTRICITY":0.00019931,"INCLINATION":87.8821,"RA_OF_ASC_NODE":48.5288,"ARG_OF_PERICENTER":103.7877,"MEAN_ANOMALY":256.3472,"EPHEMERIS_TYPE":0,"CLASSIFICATION_TYPE":"U","NORAD_CAT_ID":50478,"ELEMENT_SET_NO":999,"REV_AT_EPOCH":19751,"BSTAR":0.001445999,"MEAN_MOTION_DOT":5.25e-6,"MEAN_MOTION_DDOT":0}]
